{
  "type": "FeatureCollection",
  "features": [
    {
      "type": "Feature",
      "properties": {
        "norad_id": 41581,
        "name": "INTELSAT 31 (IS-31)",
        "group": "intelsat",
        "lat": 0.004582195206532049,
        "lon": -43.32328631190084,
        "alt_km": 35787.86392376907,
        "timestamp": "2025-12-17T21:39:45.376473+00:00",
        "meta_object_name": "INTELSAT 31 (IS-31)",
        "meta_object_id": "2016-035A",
        "meta_epoch": "2025-12-17T09:27:00.770688",
        "meta_mean_motion": 1.00274449,
        "meta_eccentricity": 0.00019987,
        "meta_inclination": 0.0203,
        "meta_ra_of_asc_node": 273.7314,
        "meta_arg_of_pericenter": 295.2783,
        "meta_mean_anomaly": 283.9649,
        "meta_ephemeris_type": 0,
        "meta_classification_type": "U",
        "meta_norad_cat_id": 41581,
        "meta_element_set_no": 999,
        "meta_rev_at_epoch": 3486,
        "meta_bstar": 0,
        "meta_mean_motion_dot": -1.27e-06,
        "meta_mean_motion_ddot": 0,
        "tle_line1": "1 41581U 16035A   25351.39375892 -.00000127  00000+0  00000+0 0  9995",
        "tle_line2": "2 41581   0.0203 273.7314 0001998 295.2783 283.9649  1.00274449 34869"
      },
      "geometry": {
        "type": "Point",
        "coordinates": [
          -43.32328631190084,
          0.004582195206532049
        ]
      }
    },
    {
      "type": "Feature",
      "properties": {
        "norad_id": 41747,
        "name": "INTELSAT 36 (IS-36)",
        "group": "intelsat",
        "lat": 0.030963833008190826,
        "lon": 120.18890890950685,
        "alt_km": 35790.53840687909,
        "timestamp": "2025-12-17T21:39:45.376484+00:00",
        "meta_object_name": "INTELSAT 36 (IS-36)",
        "meta_object_id": "2016-053A",
        "meta_epoch": "2025-12-17T13:39:05.673888",
        "meta_mean_motion": 1.00271192,
        "meta_eccentricity": 0.00011892,
        "meta_inclination": 0.0124,
        "meta_ra_of_asc_node": 7.0613,
        "meta_arg_of_pericenter": 323.7892,
        "meta_mean_anomaly": 28.8497,
        "meta_ephemeris_type": 0,
        "meta_classification_type": "U",
        "meta_norad_cat_id": 41747,
        "meta_element_set_no": 999,
        "meta_rev_at_epoch": 3412,
        "meta_bstar": 0,
        "meta_mean_motion_dot": 1e-08,
        "meta_mean_motion_ddot": 0,
        "tle_line1": "1 41747U 16053A   25351.56881567  .00000001  00000+0  00000+0 0  9999",
        "tle_line2": "2 41747   0.0124   7.0613 0001189 323.7892  28.8497  1.00271192 34123"
      },
      "geometry": {
        "type": "Point",
        "coordinates": [
          120.18890890950685,
          0.030963833008190826
        ]
      }
    },
    {
      "type": "Feature",
      "properties": {
        "norad_id": 41945,
        "name": "INTELSAT 32E (IS-32E)",
        "group": "intelsat",
        "lat": -0.011650406603709487,
        "lon": 8.523483413620193,
        "alt_km": 35784.12937444465,
        "timestamp": "2025-12-17T21:39:45.376494+00:00",
        "meta_object_name": "INTELSAT 32E (IS-32E)",
        "meta_object_id": "2017-007B",
        "meta_epoch": "2025-12-17T09:41:44.361024",
        "meta_mean_motion": 1.00270476,
        "meta_eccentricity": 6.207e-05,
        "meta_inclination": 0.028,
        "meta_ra_of_asc_node": 69.679,
        "meta_arg_of_pericenter": 323.1831,
        "meta_mean_anomaly": 155.683,
        "meta_ephemeris_type": 0,
        "meta_classification_type": "U",
        "meta_norad_cat_id": 41945,
        "meta_element_set_no": 999,
        "meta_rev_at_epoch": 3240,
        "meta_bstar": 0,
        "meta_mean_motion_dot": -2.44e-06,
        "meta_mean_motion_ddot": 0,
        "tle_line1": "1 41945U 17007B   25351.40398566 -.00000244  00000+0  00000+0 0  9994",
        "tle_line2": "2 41945   0.0280  69.6790 0000620 323.1831 155.6830  1.00270476 32405"
      },
      "geometry": {
        "type": "Point",
        "coordinates": [
          8.523483413620193,
          -0.011650406603709487
        ]
      }
    },
    {
      "type": "Feature",
      "properties": {
        "norad_id": 42818,
        "name": "INTELSAT 35E (IS-35E)",
        "group": "intelsat",
        "lat": 0.01609683729294652,
        "lon": 17.219983012624493,
        "alt_km": 35788.94370069295,
        "timestamp": "2025-12-17T21:39:45.376505+00:00",
        "meta_object_name": "INTELSAT 35E (IS-35E)",
        "meta_object_id": "2017-041A",
        "meta_epoch": "2025-12-17T09:44:14.121600",
        "meta_mean_motion": 1.00270102,
        "meta_eccentricity": 0.00018428,
        "meta_inclination": 0.0258,
        "meta_ra_of_asc_node": 6.5614,
        "meta_arg_of_pericenter": 263.2189,
        "meta_mean_anomaly": 288.0645,
        "meta_ephemeris_type": 0,
        "meta_classification_type": "U",
        "meta_norad_cat_id": 42818,
        "meta_element_set_no": 999,
        "meta_rev_at_epoch": 3099,
        "meta_bstar": 0,
        "meta_mean_motion_dot": 0,
        "meta_mean_motion_ddot": 0,
        "tle_line1": "1 42818U 17041A   25351.40571900  .00000000  00000+0  00000+0 0  9996",
        "tle_line2": "2 42818   0.0258   6.5614 0001842 263.2189 288.0645  1.00270102 30995"
      },
      "geometry": {
        "type": "Point",
        "coordinates": [
          17.219983012624493,
          0.01609683729294652
        ]
      }
    },
    {
      "type": "Feature",
      "properties": {
        "norad_id": 42950,
        "name": "INTELSAT 37E (IS-37E)",
        "group": "intelsat",
        "lat": 0.03337252563835106,
        "lon": 33.722859159655805,
        "alt_km": 35795.272594711576,
        "timestamp": "2025-12-17T21:39:45.376515+00:00",
        "meta_object_name": "INTELSAT 37E (IS-37E)",
        "meta_object_id": "2017-059A",
        "meta_epoch": "2025-12-17T09:48:58.667904",
        "meta_mean_motion": 1.0027127,
        "meta_eccentricity": 0.00029563,
        "meta_inclination": 0.0142,
        "meta_ra_of_asc_node": 332.1274,
        "meta_arg_of_pericenter": 285.3913,
        "meta_mean_anomaly": 318.0124,
        "meta_ephemeris_type": 0,
        "meta_classification_type": "U",
        "meta_norad_cat_id": 42950,
        "meta_element_set_no": 999,
        "meta_rev_at_epoch": 3024,
        "meta_bstar": 0,
        "meta_mean_motion_dot": -1.16e-06,
        "meta_mean_motion_ddot": 0,
        "tle_line1": "1 42950U 17059A   25351.40901236 -.00000116  00000+0  00000+0 0  9990",
        "tle_line2": "2 42950   0.0142 332.1274 0002956 285.3913 318.0124  1.00271270 30242"
      },
      "geometry": {
        "type": "Point",
        "coordinates": [
          33.722859159655805,
          0.03337252563835106
        ]
      }
    },
    {
      "type": "Feature",
      "properties": {
        "norad_id": 43632,
        "name": "AZERSPACE 2 (IS-38)",
        "group": "intelsat",
        "lat": 0.04089482416630765,
        "lon": 96.8127379812983,
        "alt_km": 35790.966694681745,
        "timestamp": "2025-12-17T21:39:45.376525+00:00",
        "meta_object_name": "AZERSPACE 2 (IS-38)",
        "meta_object_id": "2018-074A",
        "meta_epoch": "2025-12-17T13:32:28.807584",
        "meta_mean_motion": 1.00272158,
        "meta_eccentricity": 0.00011912,
        "meta_inclination": 0.0178,
        "meta_ra_of_asc_node": 345.1329,
        "meta_arg_of_pericenter": 287.8955,
        "meta_mean_anomaly": 61.6442,
        "meta_ephemeris_type": 0,
        "meta_classification_type": "U",
        "meta_norad_cat_id": 43632,
        "meta_element_set_no": 999,
        "meta_rev_at_epoch": 2662,
        "meta_bstar": 0,
        "meta_mean_motion_dot": 1.61e-06,
        "meta_mean_motion_ddot": 0,
        "tle_line1": "1 43632U 18074A   25351.56422231  .00000161  00000+0  00000+0 0  9995",
        "tle_line2": "2 43632   0.0178 345.1329 0001191 287.8955  61.6442  1.00272158 26624"
      },
      "geometry": {
        "type": "Point",
        "coordinates": [
          96.8127379812983,
          0.04089482416630765
        ]
      }
    },
    {
      "type": "Feature",
      "properties": {
        "norad_id": 43633,
        "name": "HORIZONS-3E",
        "group": "intelsat",
        "lat": -0.020359701529982243,
        "lon": -139.33581058606762,
        "alt_km": 35785.96561676489,
        "timestamp": "2025-12-17T21:39:45.376536+00:00",
        "meta_object_name": "HORIZONS-3E",
        "meta_object_id": "2018-074B",
        "meta_epoch": "2025-12-16T14:09:40.218048",
        "meta_mean_motion": 1.00269891,
        "meta_eccentricity": 8.37e-05,
        "meta_inclination": 0.0492,
        "meta_ra_of_asc_node": 188.1186,
        "meta_arg_of_pericenter": 112.8726,
        "meta_mean_anomaly": 165.8874,
        "meta_ephemeris_type": 0,
        "meta_classification_type": "U",
        "meta_norad_cat_id": 43633,
        "meta_element_set_no": 999,
        "meta_rev_at_epoch": 2651,
        "meta_bstar": 0,
        "meta_mean_motion_dot": -7e-08,
        "meta_mean_motion_ddot": 0,
        "tle_line1": "1 43633U 18074B   25350.59004882 -.00000007  00000+0  00000+0 0  9996",
        "tle_line2": "2 43633   0.0492 188.1186 0000837 112.8726 165.8874  1.00269891 26513"
      },
      "geometry": {
        "type": "Point",
        "coordinates": [
          -139.33581058606762,
          -0.020359701529982243
        ]
      }
    }
  ]
}